HAWK-A                  
1 43765U 18099H   26068.67628545  .00008617  00000+0  36104-3 0  9995
2 43765  97.4051 122.2425 0034260 275.5523  84.1807 15.23231043397949
STARLINK-33970          
1 64106U 25110L   26068.18446103  .00024988  00000+0  85295-3 0  9997
2 64106  53.1601  29.2171 0001077  68.1279 291.9837 15.30199816 45804
